Name,County,FIPS,Municipality,Address,Longitude,Latitude,Source,Notes
Swedesboro Brewing Company,Gloucester,34015,Swedesboro,"95 Woodstown Road, Swedesboro, NJ 08085",,,Visit South Jersey,
Nerd Mall,Gloucester,34015,Woodbury,"164 S Broad St, Woodbury, NJ 08096",,,Visit South Jersey,
Wenonah Farmers Market In the Park,Gloucester,34015,Wenonah,"7 W Mantua Ave, Wenonah, NJ 08090",,,Visit South Jersey,
William Heritage Winery,Gloucester,34015,Mullica Hill,"480 Mullica Hill Rd, Mullica Hill, NJ 08062",,,Visit South Jersey,
Westville Brewery,Gloucester,34015,Westville,"201 Broadway Suite B, Westville, NJ 08093",,,Visit South Jersey,
Kelly Green Brewing Co.,Gloucester,34015,Pitman,"154 South Broadway, Pitman, NJ 08071",,,Visit South Jersey,
Death of the Fox Brewing Company,Gloucester,34015,Clarksboro,"119 Berkley Road, Clarksboro, NJ 08020",,,Visit South Jersey,
Core3 Brewery,Gloucester,34015,Clayton,"609 N. Delsea Drive, Clayton, NJ 08312",,,Visit South Jersey,
Independent Spirits Distillery,Gloucester,34015,Woolwich Township,"131 Davidson Rd, Woolwich Township, NJ 08085",,,Visit South Jersey,
Laurel Market Pitman,Gloucester,34015,Pitman,"52 S Broadway, Pitman, NJ 08071",,,Visit South Jersey,
MADE. Artisan Marketplace,Gloucester,34015,Woodbury,"65 N Broad St, Woodbury, NJ 08096",,,Visit South Jersey,
The Music Barn,Gloucester,34015,Mullica Hill,"275 NJ-77, Mullica Hill, NJ 08302",,,Visit South Jersey,
Neck of the Woods Brewing,Gloucester,34015,Pitman,"614 Lambs Road, Suite 7, Pitman, NJ 08071",,,Visit South Jersey,
Human Village Brewing Co.,Gloucester,34015,Pitman,"148 South Broadway, Pitman, NJ 08071",,,Visit South Jersey,
Cross Keys Brewing Co.,Gloucester,34015,Williamstown,"1038 North Main Street, Williamstown, NJ 08094",,,Visit South Jersey,
Bonesaw Brewing Co.,Gloucester,34015,Glassboro,"570 Mullica Hill Road, Glassboro, NJ 08028",,,Visit South Jersey,
Axe & Arrow Brewing,Gloucester,34015,Glassboro,"105 West High Street, Glassboro, NJ 08028",,,Visit South Jersey,
Maugeri Farm Market,Gloucester,34015,Swedesboro,"1991 Oldmans Creek Road, Swedesboro, NJ 08085",,,Visit South Jersey,
Philadelphia South/Clarksboro KOA,Gloucester,34015,Clarksboro,"117 Timberlane Road, Clarksboro, NJ 08020",,,Visit South Jersey,
Tinicum Rear Range Lighthouse,Gloucester,34015,Paulsboro,"70 2nd Street, Paulsboro, NJ 08066",,,Visit South Jersey,
Hollybush Mansion,Gloucester,34015,Glassboro,"501 Whitney Avenue, Glassboro, NJ 08027",,,Visit South Jersey,
South Jersey Wine Tours,Gloucester,34015,Swedesboro,"1450 Kings Hwy, Swedesboro, NJ 08085",,,Visit South Jersey,
Cecil Creek Farm,Gloucester,34015,Mickleton,"73 Democrat Rd, Mickleton, NJ 08056",,,Visit South Jersey,
13th Child Brewery,Gloucester,34015,Williamstown,"345 South Main Street, Williamstown, NJ 08094",,,Visit South Jersey,
Greenwich Lake Park,Gloucester,34015,Greenwich Township,"Tomlin Station Road, Greenwich Township, NJ 08027",,,Visit South Jersey,
Old Stone House Village,Gloucester,34015,Sewell,"208 Egg Harbor Road, Sewell, NJ 08080",,,Visit South Jersey,
Autumn Lake Winery,Gloucester,34015,Williamstown,"870 West Malage Road, Williamstown, NJ 08094",,,Visit South Jersey,
Eight & Sand Beer Co.,Gloucester,34015,Woodbury,"1003 North Evergreen Ave, Woodbury, NJ 08096",,,Visit South Jersey,
Playground Paintball Park,Gloucester,34015,Mantua,"669 Bridgeton Pike, Mantua, NJ 08051",,,Visit South Jersey,
Summit City Farms and Winery,Gloucester,34015,Glassboro,"500 University Blvd, Glassboro, NJ 08028",,,Visit South Jersey,
Bridgeport Speedway,Gloucester,34015,Swedesboro,"83 Floodgate Road, Swedesboro, NJ 08085",,,Visit South Jersey,
Villari Vineyards,Gloucester,34015,Sewell,"1166 Tanyard Road, Sewell, NJ 08080",,,Visit South Jersey,
Heritage Vineyards,Gloucester,34015,Richwood,"480 Mullica Hill Road, Richwood, NJ 08062",,,Visit South Jersey,
Deptford Mall,Gloucester,34015,Deptford,"1750 Deptford Center Road, Deptford, NJ 08069",,,Visit South Jersey,
Wagonhouse Winery,Gloucester,34015,Swedesboro,"1401 NJ Route 45, Swedesboro, NJ 08085",,,Visit South Jersey,
Adelphia,Gloucester,34015,Deptford,"1750 Clements Bridge Rd, Deptford, NJ 08096",,,Visit South Jersey,
Williamstown Farmers Market & Village Shoppes,Gloucester,34015,Williamstown,"701 N Blackhorse Pike, Williamstown, NJ 08094",,,Visit South Jersey,
United Artists Washington Township,Gloucester,34015,Sewell,"121 Tuckahoe Road, Sewell, NJ 08080",,,Visit South Jersey,
The Broadway Theater of Pitman,Gloucester,34015,Pitman,"43 S Broadway, Pitman, NJ 08071",,,Visit South Jersey,
Pitman Golf Club,Gloucester,34015,Sewell,"501 Pitman Road, Sewell, NJ 08080",,,Visit South Jersey,
Valley Brook Country Club,Gloucester,34015,Blackwood,"200 Golf View Drive, Blackwood, NJ 08012",,,Visit South Jersey,
Maple Ridge Golf Club,Gloucester,34015,Sewell,"1705 Glassboro Road, Sewell, NJ 08080",,,Visit South Jersey,
Gino's Drive Range and Miniature Golf,Gloucester,34015,Mantua,"669 Route 45, Mantua, NJ 08051",,,Visit South Jersey,
The Grand Theatre,Gloucester,34015,Williamstown,"405 S Main Street, Williamstown, NJ 08094",,,Visit South Jersey,
AMC Deptford 8,Gloucester,34015,Deptford Township,"1740 Clements Bridge Road, Deptford Township, NJ 08096",,,Visit South Jersey,
Riverwinds Golf & Tennis Club,Gloucester,34015,West Deptford,"270 Eagle Point Road, West Deptford, NJ 08096",,,Visit South Jersey,
Skydive Cross Keys,Gloucester,34015,Williamstown,"300 Dahlia Avenue, Williamstown, NJ 08094",,,Visit South Jersey,
Heritage Glass Museum,Gloucester,34015,Glassboro,"25 West High Street, Glassboro, NJ 08028",,,Visit South Jersey,
Trinity Episcopal Church,Gloucester,34015,Swedesboro,"1208 Kings Highway, Swedesboro, NJ 08085",,,Visit South Jersey,
Arts Council of Princeton,Mercer,34021,Princeton,"102 Witherspoon Street, Princeton, NJ 08542",,,Visit Princeton-Mercer,
Crossroads of the American Revolution National Heritage Area,Mercer,34021,Trenton,"101 Barrack Street, Trenton, NJ 08608",,,Visit Princeton-Mercer,
Historical Society of Princeton,Mercer,34021,Princeton,"354 Quaker Road, Princeton, NJ 08540",,,Visit Princeton-Mercer,
Kidsbridge Tolerance Museum,Mercer,34021,Ewing,"2000 Pennington Road, Ewing, NJ 08618",,,Visit Princeton-Mercer,
Labyrinth Books,Mercer,34021,Princeton,"122 Nassau Street, Princeton, NJ 08542",,,Visit Princeton-Mercer,
Lewis Center for the Arts,Mercer,34021,Princeton,"122 Alexander Street, Princeton, NJ 08542",,,Visit Princeton-Mercer,
McCarter Theater Center,Mercer,34021,Princeton,"91 University Place, Princeton, NJ 08540",,,Visit Princeton-Mercer,
Princeton Garden Theatre,Mercer,34021,Princeton,"160 Nassau Street, Princeton, NJ 08543",,,Visit Princeton-Mercer,
Princeton Tour Company,Mercer,34021,Princeton,"98 Nassau Street, Princeton, NJ 08542",,,Visit Princeton-Mercer,
Terhune Orchards,Mercer,34021,Princeton,"330 Cold Soil Road, Princeton, NJ 08540",,,Visit Princeton-Mercer,
West Windsor Arts Council,Mercer,34021,Princeton Junction,"952 Alexander Road, Princeton Junction, NJ 08550",,,Visit Princeton-Mercer,
Hopewell Theater,Mercer,34021,Hopewell,"5 S Greenwood Ave, Hopewell, NJ 08525",,,Visit Princeton-Mercer,
Kelsey Theatre At Mercer County Community College,Mercer,34021,West Windsor,"1200 Old Trenton Road, West Windsor, NJ 08550",,,Visit Princeton-Mercer,
The Referend Bier Blendery,Mercer,34021,Pennington,"1595 Reed Road, Pennington, NJ 08534",,,Visit Princeton-Mercer,
Theater to Go,Mercer,34021,Lawrenceville,"7 Holly Lane, Lawrenceville, NJ 08648",,,Visit Princeton-Mercer,
Moorestown Business Association,Burlington,34005,Moorestown ,"16 East Main Street, Moorestown NJ, 08057",,,Visit South Jersey,
Burlington City Farmers Market,Burlington,34005,Burlington ,"300 High Street, Burlington NJ, 08016",,,Visit South Jersey,
Train Wreck Distillery,Burlington,34005,Mount Holly ,"25 Madison Ave, Mount Holly NJ, 08060",,,Visit South Jersey,
Mount Holly Farmers Market,Burlington,34005,Mount Holly ,"Park Dr & Commerce St, Mount Holly NJ, 08060",,,Visit South Jersey,
‘Bout The Hops Brewing,Burlington,34005,Mount Laurel Township ,"2000 Crawford Pl, Mount Laurel Township NJ",,,Visit South Jersey,
Iron Plow Vineyards,Burlington,34005,Columbus ,"26750 Mount Pleasant Road, Columbus New Jersey, 08022",,,Visit South Jersey,
Zed’s Beer,Burlington,34005,Marlton ,"19 North Maple Avenue, Unit B, Marlton New Jersey, 08053",,,Visit South Jersey,
Third State Brewing,Burlington,34005,Burlington ,"352 High Street, Burlington New Jersey, 08016",,,Visit South Jersey,
Lower Forge Brewery,Burlington,34005,Medford ,"14 South Main Street, Medford New Jersey, 08055",,,Visit South Jersey,
Common Sense Brewing,Burlington,34005,Bordentown ,"102 Farnsworth Avenue, Bordentown New Jersey, 08505",,,Visit South Jersey,
Moorestown Theater Company,Burlington,34005,Moorestown ,"19 W Main St., Moorestown NJ, 08057",,,Visit South Jersey,
Holiday Inn Express & Suites – Mt. Laurel,Burlington,34005,Mt. Laurel ,"6000 Crawford Pl, Mt. Laurel NJ, 08054",,,Visit South Jersey,
Hotel ML,Burlington,34005,Mount Laurel ,"915 Route 73 Mount Laurel, Mount Laurel NJ, 08054",,,Visit South Jersey,
Pinelands Adventures,Burlington,34005,Shamong ,"1005 Atsion Road, Shamong NJ, 08088",,,Visit South Jersey,
Liberty Lake Picnic,Burlington,34005,Bordentown ,"1195 Florence-Columbus Road, Bordentown NJ, 08505",,,Visit South Jersey,
Golf Performance Institute,Burlington,34005,Mt Laurel ,"2036 Briggs Rd, Mt Laurel NJ, 08054",,,Visit South Jersey,
Spellbound Brewing,Burlington,34005,Mount Holly ,"10 Lippincott Lane Unit 12, Mount Holly NJ, 08060",,,Visit South Jersey,
Village Idiot Brewing,Burlington,34005,Mount Holly ,"42 High Street, Mount Holly NJ, 08060",,,Visit South Jersey,
Clara Barton SchoolHouse,Burlington,34005,Bordentown ,"142 Crosswicks Street, Bordentown NJ, 08505",,,Visit South Jersey,
The Funplex,Burlington,34005,Mount Laurel ,"3320-24 New Jersey 38, Mount Laurel NJ, 08054",,,Visit South Jersey,
Apple Pie Hill,Burlington,34005,Chatsworth ,"Wharton State Forest Ringler Avenue, Chatsworth NJ, 08019",,,Visit South Jersey,
Atsion Village & Recreation Center,Burlington,34005,Shamong ,"Route 206, Shamong NJ, 08088",,,Visit South Jersey,
Conte Farms,Burlington,34005,Tabernacle ,"299 Flyatt Road, Tabernacle NJ, 08088",,,Visit South Jersey,
Fernbrook Farms Environmental Education Center,Burlington,34005,Columbus ,"142 Bordentown Georgetown Road, Columbus NJ, 08022",,,Visit South Jersey,
Johnson’s Corner Farm,Burlington,34005,Medford ,"133 Church Road, Medford NJ, 08055",,,Visit South Jersey,
Our Shared Ground,Burlington,34005,Moorestown ,"500 Centerton Road, Moorestown NJ, 08057",,,Visit South Jersey,
Russo’s Fruit & Vegetable Farm,Burlington,34005,Tabernacle ,"Medford Lakes & Carranza Roads, Tabernacle NJ, 08088",,,Visit South Jersey,
Valenzano Winery,Burlington,34005,Shamong ,"1320 Old Indian Mills Road, Shamong NJ",,,Visit South Jersey,
Clarks Landing Yacht Club,Burlington,34005,Delran ,"63 St. Mihiel Drive, Delran NJ, 08075",,,Visit South Jersey,
Marco’s Restaurant & Banquets,Burlington,34005,Marlton ,"115 South Elmwood Rd, Marlton NJ, 08053",,,Visit South Jersey,
Smithville Mansion,Burlington,34005,Eastampton ,"803 Smithville Road, Eastampton NJ, 08060",,,Visit South Jersey,
The Bradford Estate,Burlington,34005,Hainesport ,"1910 Marne Hwy, Hainesport NJ, 08036",,,Visit South Jersey,
The Merion,Burlington,34005,Cinnaminson ,"1301 Route 130 South, Cinnaminson NJ, 08077",,,Visit South Jersey,
Downtown Medford,Burlington,34005,Medford ,"Main Street, Medford NJ, 08055",,,Visit South Jersey,
Downtown Moorestown,Burlington,34005,Moorestown ,"Main Street, Moorestown NJ, 08057",,,Visit South Jersey,
Downtown Mount Holly,Burlington,34005,Mount Holly ,"Main Street, Mount Holly NJ, 08060",,,Visit South Jersey,
Moorestown Mall,Burlington,34005,Moorestown ,"400 New Jersey 38, Moorestown NJ, 08057",,,Visit South Jersey,
Rancocas Woods Village Shops,Burlington,34005,Mount Laurel ,"204 Creek Road, Mount Laurel NJ, 08054",,,Visit South Jersey,
The Promenade at Sagemore,Burlington,34005,Marlton ,"500 Rte 73 S, Marlton NJ, 08053",,,Visit South Jersey,
The Shops at Mill Race Village,Burlington,34005,Mount Holly ,", Mount Holly NJ, 08060",,,Visit South Jersey,
Burlington County Farmers Market,Burlington,34005,Moorestown ,"500 Centerton Road, Moorestown NJ, 08057",,,Visit South Jersey,
Columbus Farmers Market,Burlington,34005,Columbus ,"2919 Route 206, Columbus NJ, 08022",,,Visit South Jersey,
Delrans Farmers Market,Burlington,34005,Delran ,"900 Chester Avenue, Delran NJ, 08075",,,Visit South Jersey,
Kirby’s Farmers Market,Burlington,34005,Medford ,"67 N Main Street, Medford NJ, 08055",,,Visit South Jersey,
Downtown Bordentown,Burlington,34005,Bordentown ,"Farnsworth Avenue, Bordentown NJ, 08505",,,Visit South Jersey,
Downtown Burlington City,Burlington,34005,Burlington ,"High Street, Burlington NJ, 08106",,,Visit South Jersey,
AMC Marlton 8,Burlington,34005,Marlton ,"800 Route 73, Marlton NJ, 08053",,,Visit South Jersey,
Regal Burlington Stadium 20,Burlington,34005,Burlington Township ,"250 Bromley Boulevard, Burlington Township NJ, 08016",,,Visit South Jersey,
Regal Moorestown Mall Stadium 12 & RPX,Burlington,34005,Moorestown ,"400 Route 38, Moorestown NJ, 08057",,,Visit South Jersey,
Center for the Arts in South Jersey,Burlington,34005,Marlton ,"South Elmwood Road, Marlton NJ, 08053",,,Visit South Jersey,
Medford Arts Center,Burlington,34005,Medford ,"18 North Main Street, Medford NJ, 08055",,,Visit South Jersey,
Perkins Center for the Arts,Burlington,34005,Moorestown ,"395 Kings Highway, Moorestown NJ, 08007",,,Visit South Jersey,
Bridge Players Theater Company,Burlington,34005,Burlington ,"36 East Broad Street, Burlington NJ, 08016",,,Visit South Jersey,
Burlington County Footlighters,Burlington,34005,Cinnaminson ,"808 Pomona Road, Cinnaminson NJ, 08077",,,Visit South Jersey,
Ramblewood Country Club,Burlington,34005,Mount Laurel ,"200 Country Club Parkway, Mount Laurel NJ, 08054",,,Visit South Jersey,
Rancocas Golf Club,Burlington,34005,Willingboro ,"12 Club Ridge Lane, Willingboro NJ, 08046",,,Visit South Jersey,
Springfield Golf Center,Burlington,34005,Mount Holly ,"855 Jacksonville-Mount Holly Rd., Mount Holly NJ, 08060",,,Visit South Jersey,
White Oaks Country Club,Burlington,34005,Newfield ,"2951 Dutch Mill Road, Newfield NJ, 07882",,,Visit South Jersey,
Willow Brook Country Club,Burlington,34005,Moorestown ,"4310 Bridgeboro Rd., Moorestown NJ, 08057",,,Visit South Jersey,
Riverton Country Club,Burlington,34005,Cinnaminson ,"1416 Highland Ave, Cinnaminson NJ, 08077",,,Visit South Jersey,
Deerwood Country Club,Burlington,34005,Westampton ,"845 Woodlane Road, Westampton NJ, 08060",,,Visit South Jersey,
Fountain Green Golf Course,Burlington,34005,Fort Dix ,"Building 3512, Fort Dix NJ, 08640",,,Visit South Jersey,
Golden Pheasant Golf Course,Burlington,34005,Lumberton ,"141 Country Club Dr., Lumberton NJ, 08048",,,Visit South Jersey,
Hanover Country Club,Burlington,34005,Wrightstown ,"133 Larrison Rd., Wrightstown NJ, 08562",,,Visit South Jersey,
Indian Spring Country Club,Burlington,34005,Marlton ,"115 South Elmwood Rd., Marlton NJ, 08053",,,Visit South Jersey,
Burlington Country Club,Burlington,34005,Mount Holly ,"170 Burrs Road, Mount Holly NJ, 08060",,,Visit South Jersey,
Laurel Creek Country Club,Burlington,34005,Mount Laurel ,"701 Centerton Road, Mount Laurel NJ, 08054",,,Visit South Jersey,
Links Golf Club,Burlington,34005,Marlton ,"100 Majestic Way, Marlton NJ, 08053",,,Visit South Jersey,
Little Mill Country Club,Burlington,34005,Marlton ,"104 Bortons Road, Marlton NJ, 08053",,,Visit South Jersey,
Medford Village Country Club,Burlington,34005,Medford ,"28 Golf View Drive, Medford NJ, 08055",,,Visit South Jersey,
Chipsfolly Family Campground,Burlington,34005,New Gretna ,"100 Chipsfolly Road, New Gretna NJ, 08224",,,Visit South Jersey,
Pilgrim Lake Campgrounds,Burlington,34005,New Gretna ,"940 Stage Road, New Gretna NJ, 08224",,,Visit South Jersey,
Turtle Run Campground,Burlington,34005,Wading River ,"3 Cedar Lane, Wading River NJ, 08215",,,Visit South Jersey,
Wading Pines Camping Resort,Burlington,34005,Washington ,"85 Godfrey Bridge Road, Washington NJ, 08019",,,Visit South Jersey,
Rancocas Nature Center,Burlington,34005,Westampton ,"794 Rancocas Road, Westampton NJ, 08060",,,Visit South Jersey,
Smithville Park,Burlington,34005,Mt. Holly ,"39 East Railroad Avenue, Mt. Holly NJ, 08060",,,Visit South Jersey,
Wharton State Forest,Burlington,34005,Tabernacle ,"Tabernacle Area, Atlantic, Burlington and Camden Counties NJ, 08037",,,Visit South Jersey,
Whitesbog Village,Burlington,34005,Brown Mills ,"120-34 Whitesbog Road, Brown Mills NJ, 08015",,,Visit South Jersey,
Palmyra Cove Nature Park,Burlington,34005,Palmyra ,"1335 Rte 73, Palmyra NJ, 08065",,,Visit South Jersey,
Burlington County Golf Academy,Burlington,34005,Mt.Holly ,"855 Hedding Jacksonville Road, Mt.Holly NJ, 08060",,,Visit South Jersey,
Ironwood Outdoor Center,Burlington,34005,Lumberton ,"2 camp drive PO Box 506, Lumberton NJ, 08048",,,Visit South Jersey,
Bass River State Forest,Burlington,34005,Tuckerton ,"762 Stage Rd., Tuckerton NJ, 08087",,,Visit South Jersey,
Boundary Creek,Burlington,34005,Moorestown ,"Creek Road, Moorestown NJ, 08057",,,Visit South Jersey,
Brendan Byrne State Forest,Burlington,34005,Southampton Township,"Southampton Township, NJ, NJ, 08015",,,Visit South Jersey,
The Delaware River Heritage Trail,Burlington,34005,Stockton ,"along Delaware River P.O. Box 15, Stockton NJ, 08859",,,Visit South Jersey,
Medford Historical Society,Burlington,34005,Medford ,"275 Church Road, Medford NJ, 08055",,,Visit South Jersey,
U.S. Army Reserve Museum,Burlington,34005,Fort Dix ,"6501 Pennsylvania Avenue, Fort Dix NJ, 08640",,,Visit South Jersey,
Vincentown- Tabernacle Telephone Company & Museum,Burlington,34005,Vincentown ,"17 Mill Street, Vincentown NJ, 08088",,,Visit South Jersey,
Air Victory Museum,Burlington,34005,Lumberton ,"68 Stacy Haines Road, Lumberton NJ, 08048",,,Visit South Jersey,
Burlington County Historical Society & Museum,Burlington,34005,Burlington ,"451 High Street, Burlington NJ, 08016",,,Visit South Jersey,
Burlington County Prison Museum,Burlington,34005,Mt. Holly ,"128 Hight Street, Mt. Holly NJ, 08060",,,Visit South Jersey,
Historic Smithville Park & Mansion,Burlington,34005,Mount Holly ,"803 Smithville Road, Mount Holly NJ, 08060",,,Visit South Jersey,
Alice Paul Institute,Burlington,34005,Mount Laurel ,"128 Hooton Road, Mount Laurel NJ, 08054",,,Visit South Jersey,
Batsto Village,Burlington,34005,Hammonton ,"31 Batsto Road, Hammonton NJ, 08037",,,Visit South Jersey,
John Woolman Memorial,Burlington,34005,Mount Holly ,"99 Branch Street, Mount Holly NJ, 08060",,,Visit South Jersey,
Armageddon Brewing,Camden,34007,Somerdale ,900 Chestnut Ave Building J Somderdale New Jersey,,,Visit South Jersey,
Tonewood Brewing,Camden,34007,Oaklyn ,215 West Clinton Avenue Oaklyn  New Jersey,,,Visit South Jersey,
Red White and Brew Beer Co.,Camden,34007,Audubon ,100 West Merchant Street Audubon  New Jersey,,,Visit South Jersey,
King’s Road Brewing Co.,Camden,34007,Haddonfield ,127 Kings Highway East Haddonfield  New Jersey,,,Visit South Jersey,
Eclipse Brewing,Camden,34007,Merchantville ,25 East Park Avenue Merchantville  New Jersey,,,Visit South Jersey,
Devil’s Creek Brewery,Camden,34007,Collingswood ,1 Powell Lane Collingswood  New Jersey,,,Visit South Jersey,
Atco Brewing Company,Camden,34007,Atco ,302 White Horse Pike B-1 Atco  New Jersey,,,Visit South Jersey,
South Camden Theatre Company,Camden,34007,Camden ,400 Jasper Street Camden  New Jersey,,,Visit South Jersey,
Berlin Brewing,Camden,34007,Berlin ,220 South White Horse Pike Berlin  New Jersey,,,Visit South Jersey,
Markeim Arts Center,Camden,34007,Haddonfield ,104 Walnut Street Haddonfield  New Jersey,,,Visit South Jersey,
Double Nickel Brewing Company,Camden,34007,Pennsauken ,1585 Route 73 Pennsauken  New Jersey,,,Visit South Jersey,
Haddonfield Plays & Players,Camden,34007,Haddonfield ,967 East Atlantic Avenue Haddonfield  New Jersey,,,Visit South Jersey,
Zaffron,Camden,34007,Haddonfield ,113 Kings Highway East Haddonfield  New Jersey,,,Visit South Jersey,
Revolution Coffee Roasters,Camden,34007,Collingswood ,13 Fern Ave Collingswood  New Jersey,,,Visit South Jersey,
Cooper River Yacht Club,Camden,34007,Collingswood ,450 South Park Drive Collingswood  New Jersey,,,Visit South Jersey,
Forgotten Boardwalk Brewing,Camden,34007,Cherry Hill ,1940 Olney Avenue #100 Cherry Hill  New Jersey,,,Visit South Jersey,
Lunacy Brewing Company,Camden,34007,Magnolia ,214 Davis Road Magnolia  New Jersey,,,Visit South Jersey,
Flying Fish Brewing Co.,Camden,34007,Somerdale ,900 Kennedy Boulevard Somerdale  New Jersey,,,Visit South Jersey,
Garden State Discovery Museum,Camden,34007,Cherry Hill ,2040 Springdale Road Cherry Hill  New Jersey,,,Visit South Jersey,
Pinsetters Bar & Bowl,Camden,34007,Pennsauken Twp. ,7111 Maple Avenue Pennsauken Twp.  New Jersey,,,Visit South Jersey,
Springdale Farms,Camden,34007,Cherry Hill ,1638 Springdale Road Cherry Hill  New Jersey,,,Visit South Jersey,
Adventure Aquarium,Camden,34007,Camden ,1 Riverside Drive Camden  New Jersey,,,Visit South Jersey,
Camden Children’s Garden,Camden,34007,Camden ,3 Riverside Drive Camden  New Jersey,,,Visit South Jersey,
Atco Raceway,Camden,34007,Atco ,1000 Jackson Road Atco  New Jersey,,,Visit South Jersey,
Canvas Mixers,Camden,34007,Collingswood ,542 Haddon Avenue Collingswood  New Jersey,,,Visit South Jersey,
CoCo Key Water Resort,Camden,34007,Mount Laurel ,915 New Jersey 73 Mount Laurel  New Jersey,,,Visit South Jersey,
Diggerland,Camden,34007,West Berlin ,100 Pinedge Drive West Berlin  New Jersey,,,Visit South Jersey,
Sahara Sam’s Oasis Indoor & Outdoor Waterpark,Camden,34007,West Berlin ,535 N Rte 73 West Berlin  New Jersey,,,Visit South Jersey,
Sharrott Winery,Camden,34007,Blue Anchor,320 South Egg Harbor Road Blue Anchor New Jersey,,,Visit South Jersey,
Amalthea Cellars,Camden,34007,Atco ,209 Vineyard Road Atco  New Jersey,,,Visit South Jersey,
Camden County Boathouse,Camden,34007,Pennsauken ,7050 N Park Drive Pennsauken  New Jersey,,,Visit South Jersey,
Collingswood Grand Ballroom,Camden,34007,Collingswood ,315 White Horse Pike Collingswood  New Jersey,,,Visit South Jersey,
Luciens Manor,Camden,34007,Berlin ,81 West White Horse Pike Berlin  New Jersey,,,Visit South Jersey,
Mcfaddon Catering and Lakeside Manor,Camden,34007,Gibbsboro ,10 Foster Ave Gibbsboro  New Jersey,,,Visit South Jersey,
The Moorestown Community House,Camden,34007,Moorestwon ,16 East Main Street Moorestwon  New Jersey,,,Visit South Jersey,
The Shoppes at Cross Keys,Camden,34007,Gloucester Twp. ,611 Cross Keys Road Gloucester Twp.  New Jersey,,,Visit South Jersey,
Voorhees Town Center,Camden,34007,Voorhees ,2120 Voorhees Town Center Voorhees  New Jersey,,,Visit South Jersey,
Downtown Haddon Heights,Camden,34007,Haddon Heights ,"500 Cooper St, Camden, NJ 08102 Haddon Heights  New Jersey",,,Visit South Jersey,
Downtown Haddonfield,Camden,34007,Haddonfield ,Kings Highway Haddon Avenue Haddonfield  New Jersey,,,Visit South Jersey,
Cherry Hill Mall,Camden,34007,Cherry Hill ,2000 Route 38 Cherry Hill  New Jersey,,,Visit South Jersey,
Garden State Park,Camden,34007,Cherry Hill ,100 Haddonfield Road Cherry Hill  New Jersey,,,Visit South Jersey,
Collingswood Farmers Market,Camden,34007,Collingswood ,713 North Atlantic Avenue Collingswood  New Jersey,,,Visit South Jersey,
Haddon Heights Farmers Market,Camden,34007,Haddon Heights ,Station & East Atlantic Avenue Haddon Heights  New Jersey,,,Visit South Jersey,
Haddonfield Farmers Market,Camden,34007,Haddonfield ,33 E Euclid Ave Haddonfield  New Jersey,,,Visit South Jersey,
Westmont Farmers Market,Camden,34007,Haddon Twp. ,51 Haddon Ave Haddon Twp.  New Jersey,,,Visit South Jersey,
Downtown Collingswood,Camden,34007,Collingswood ,Haddon Avenue Collingswood  New Jersey,,,Visit South Jersey,
Berlin Farmers Market,Camden,34007,Berlin ,41 Clementon Rd Berlin  New Jersey,,,Visit South Jersey,
Blackwood Farmers Market,Camden,34007,Blackwood ,15 S Black Horse Pike and the Studio at Mainstage Center Blackwood  New Jersey,,,Visit South Jersey,
Symphony in C,Camden,34007,Collingswood ,576 Haddon Avenue Collingswood  New Jersey,,,Visit South Jersey,
BB&T Pavilion,Camden,34007,Camden ,1 Harbour Boulevard Camden  New Jersey,,,Visit South Jersey,
Collingswood Scottish Rite Theater,Camden,34007,Collingswood ,315 White Horse Pik Collingswood  New Jersey,,,Visit South Jersey,
Lyceum Hall Center for the Arts,Camden,34007,Burlington ,432 High Street Burlington  New Jersey,,,Visit South Jersey,
Rutgers-Camden Center for the Arts,Camden,34007,Camden ,303 Cooper Street Camden  New Jersey,,,Visit South Jersey,
AMC Loews Cherry Hill 24,Camden,34007,Cherry Hill ,2121 New Jersey 38 Cherry Hill  New Jersey,,,Visit South Jersey,
All Fired Up,Camden,34007,Collingswood ,602 Haddon Avenue Collingswood  New Jersey,,,Visit South Jersey,
Croft Farms Arts Center,Camden,34007,Cherry Hill ,100 Bortons Mill Rd Cherry Hill  New Jersey,,,Visit South Jersey,
The Ritz Theatre Company,Camden,34007,Haddon Township ,915 White Horse Pike Haddon Township  New Jersey,,,Visit South Jersey,
Freeway Golf Course,Camden,34007,Sicklerville ,1858 Sicklerville Rd. Sicklerville  New Jersey,,,Visit South Jersey,
Kresson Golf Course,Camden,34007,Voorhees ,298 Kresson-Gibbsboro Road Voorhees  New Jersey,,,Visit South Jersey,
Pennsuaken Country Club,Camden,34007,Pennsauken ,3800 Haddonfield Rd. Pennsauken  New Jersey,,,Visit South Jersey,
Pinelands Golf Course,Camden,34007,Winslow Township ,887 S. Mays Landing Rd. Winslow Township  New Jersey,,,Visit South Jersey,
Washington Twp. Municipal,Camden,34007,Turnersville ,197 Fries Mill Rd. Turnersville  New Jersey,,,Visit South Jersey,
Golf Land,Camden,34007,Voorhees ,801 Rt. 561 Voorhees  New Jersey,,,Visit South Jersey,
Tavistock Country Club,Camden,34007,Haddonfield ,100 Tavistock Ln Haddonfield  New Jersey,,,Visit South Jersey,
Fox Meadow Golf Center,Camden,34007,Maple Shade ,2880 Route 73 North Maple Shade  New Jersey,,,Visit South Jersey,
Little Pond Golf Center,Camden,34007,Clementon ,111 Chews Landing Road Clementon  New Jersey,,,Visit South Jersey,
Wallworth Park,Camden,34007,Cherry Hill and Haddonfield ,Kings Highway and Brace Road Cherry Hill  New Jersey,,,Visit South Jersey,
Wiggins Park Marina,Camden,34007,Camden ,Dr Martin Luther King Blvd Camden  New Jersey,,,Visit South Jersey,
Wiggins Waterfront Park,Camden,34007,Camden ,Dr. Martin Luther King Boulevard Camden  New Jersey,,,Visit South Jersey,
Valleybrook Country Club,Camden,34007,Blackwood ,200 Golfview Drive Blackwood  New Jersey,,,Visit South Jersey,
Berlin Park,Camden,34007,Berlin ,White Horse Pike Berlin  New Jersey,,,Visit South Jersey,
Camden County Golf Academy,Camden,34007,Pennsauken ,8001 South Route 130 Pennsauken  New Jersey,,,Visit South Jersey,
Challenge Grove Park,Camden,34007,Cherry Hill ,Bortons Mill & Caldwell Roads Cherry Hill  New Jersey,,,Visit South Jersey,
Cooper River Park,Camden,34007,Collingswood ,579 S Park Drive Collingswood  New Jersey,,,Visit South Jersey,
Haddon Lake Park,Camden,34007,Haddon Heights,Station Avenue to 10th Avenue and from Kings Highway to the Black Horse Pike Haddon Heights New Jersey,,,Visit South Jersey,
Hopkins Pond,Camden,34007,Haddonfield ,Off Grove Street and Hopkins Lane Haddonfield  New Jersey,,,Visit South Jersey,
Pennypacker Park,Camden,34007,Haddonfield ,Kings Highway Haddonfield  New Jersey,,,Visit South Jersey,
Walt Whitman House,Camden,34007,Camden ,330 Mickle Boulevard Camden  New Jersey,,,Visit South Jersey,
Battleship New Jersey,Camden,34007,Camden ,62 Battleship Place Camden  New Jersey,,,Visit South Jersey,
Camden Shipyard & Maritime Museum,Camden,34007,Camden ,1910 Broadway Camden  New Jersey,,,Visit South Jersey,
Indian King Tavern Museum,Camden,34007,Haddonfield ,233 Kings Highway East Haddonfield  New Jersey,,,Visit South Jersey,
Hadrosaurus,Camden,34007,Haddonfield ,2 King's Court Haddonfield  New Jersey,,,Visit South Jersey,
Peter Mott House,Camden,34007,Lawnside ,26 Kings Court Lawnside  New Jersey,,,Visit South Jersey,
